[
    {
        "Altitude(m)": 604221.1926176432,
        "Argument of Periapsis(deg)": 0.0,
        "Eccentricity": 0.0,
        "Inclination(deg)": 60.0,
        "Latitude(deg)": 14.11717907827414,
        "Longitude(deg)": -66.66585877858037,
        "Mean Anomaly(deg)": 16.3636,
        "RAAN(deg)": 25.0,
        "Satellite Name": "Test1 111",
        "Satellite Number": 111,
        "Semi-Major Axis(m)": 6980739.136638005,
        "Time(s)": 0
    },
    {
        "Altitude(m)": 604235.3331719327,
        "Argument of Periapsis(deg)": 0.00010418945913296404,
        "Eccentricity": 0.0,
        "Inclination(deg)": 60.0,
        "Latitude(deg)": 14.651576101316554,
        "Longitude(deg)": -66.37741241826122,
        "Mean Anomaly(deg)": 16.983706145461834,
        "RAAN(deg)": 24.99957995086026,
        "Satellite Name": "Test1 111",
        "Satellite Number": 111,
        "Semi-Major Axis(m)": 6980739.136638005,
        "Time(s)": 10
    }
]